INTELSAT 902 (IS-902)   
1 26900U 01039A   26198.47188061 -.00000295  00000+0  00000+0 0  9996
2 26900   6.1904  71.4099 0004189  44.3428 299.3155  1.00271814 90991
INTELSAT 904 (IS-904)   
1 27380U 02007A   26198.40425154 -.00000238  00000+0  00000+0 0  9992
2 27380   6.9936  68.8185 0005387  26.8195 313.6337  1.00270447 52069
DIRECTV 5 (TEMPO 1)     
1 27426U 02023A   26198.60254741 -.00000069  00000+0  00000+0 0  9997
2 27426   4.9537  74.9297 0003190  48.7166 278.5717  1.00271724 88427
INTELSAT 905 (IS-905)   
1 27438U 02027A   26198.63725389  .00000082  00000+0  00000+0 0  9992
2 27438   6.8280  69.4293 0003517  48.4479 269.7727  1.00272193 51668
GALAXY 3C (G-3C)        
1 27445U 02030A   26198.66448296 -.00000163  00000+0  00000+0 0  9997
2 27445   3.8109  77.5822 0001647  31.8510 330.4186  1.00270862 46801
INTELSAT 906 (IS-906)   
1 27513U 02041A   26198.68239233  .00000001  00000+0  00000+0 0  9996
2 27513   5.8769  72.5426 0003723  28.1233 144.6581  1.00273657 87336
GALAXY 13 (HORIZONS-1)  
1 27954U 03044A   26198.59466071  .00000122  00000+0  00000+0 0  9995
2 27954   1.4950  83.4714 0002117  34.4184 241.5823  1.00272362 46873
INTELSAT 10-02          
1 28358U 04022A   26198.62412750 -.00000021  00000+0  00000+0 0  9999
2 28358   0.0556 255.0697 0000220   5.8120 258.2367  1.00270229 80866
DIRECTV 8               
1 28659U 05019A   26198.60072741  .00000000  00000+0  00000+0 0  9996
2 28659   0.0222  65.2513 0003093  55.8500 271.5299  1.00270458 77374
GALAXY 28 (G-28)        
1 28702U 05022A   26198.61892749 -.00000211  00000+0  00000+0 0  9993
2 28702   3.3741  78.5562 0002492  31.4507  21.1434  1.00271437 52286
GALAXY 16 (G-16)        
1 29236U 06023A   26198.60471409 -.00000136  00000+0  00000+0 0  9999
2 29236   0.0244 150.3278 0002578 325.3288 298.4463  1.00271480 73271
DIRECTV 9S              
1 29494U 06043A   26198.60428074 -.00000124  00000+0  00000+0 0  9994
2 29494   2.4975  80.5356 0005003  32.3023 298.9181  1.00271436 51687
GALAXY 17 (G-17)        
1 31307U 07016B   26198.60748743 -.00000217  00000+0  00000+0 0  9992
2 31307   3.0468  79.5166 0003648  35.9755 313.6002  1.00271358 70106
INTELSAT 11 (IS-11)     
1 32253U 07044B   26198.40901823 -.00000210  00000+0  00000+0 0  9995
2 32253   3.6423  78.3024 0004297  99.9926 257.0586  0.99052783 68746
HORIZONS-2              
1 32388U 07063B   26198.53844794 -.00000264  00000+0  00000+0 0  9991
2 32388   2.6786  80.2541 0003549  17.4103 317.7169  1.00273110 68117
DIRECTV 11              
1 32729U 08013A   26198.46217389 -.00000135  00000+0  00000+0 0  9999
2 32729   0.0057 267.0546 0000151 297.3767 158.0387  1.00270476 45890
GALAXY 18 (G-18)        
1 32951U 08024A   26198.59994740  .00000016  00000+0  00000+0 0  9992
2 32951   0.0165  78.4344 0002879  36.8080 273.1310  1.00271154 46159
GALAXY 19 (G-19)        
1 33376U 08045A   26198.60514742 -.00000148  00000+0  00000+0 0  9996
2 33376   0.0501 242.9368 0002439 243.4882 289.8464  1.00270940 65200
FM-5                    
1 35493U 09034A   26198.53602125 -.00000209  00000+0  00000+0 0  9990
2 35493   0.0504 254.5777 0000896 104.1827  43.3849  1.00268994 46941
INTELSAT 14 (IS-14)     
1 36097U 09064A   26198.58062752  .00000000  00000+0  00000+0 0  9993
2 36097   0.0172  42.8362 0002426  74.7534 341.8399  1.00270040 60913
INTELSAT 15 (IS-15)     
1 36106U 09067A   26198.64119703  .00000000  00000+0  00000+0 0  9993
2 36106   0.0203  46.9456 0002261  68.7098 135.7866  1.00270400 41539
DIRECTV 12              
1 36131U 09075A   26198.60402075 -.00000113  00000+0  00000+0 0  9999
2 36131   0.0447 222.1598 0000254 342.1549 205.8215  1.00272808 46853
INTELSAT 16 (IS-16)     
1 36397U 10006A   26198.55981197 -.00000254  00000+0  00000+0 0  9996
2 36397   0.0162  59.1351 0002327  76.6378 284.9205  1.00271953 59950
XM-5                    
1 37185U 10053A   26198.53021456 -.00000034  00000+0  00000+0 0  9991
2 37185   0.0620 264.4394 0001599 309.7763 156.8058  1.00279095 57788
INTELSAT 17 (IS-17)     
1 37238U 10065B   26198.63738367 -.00000011  00000+0  00000+0 0  9995
2 37238   0.0048  77.9507 0002546  49.2695 103.6815  1.00272303 53554
INTELSAT 28 (IS-28)     
1 37392U 11016A   26198.40416487 -.00000236  00000+0  00000+0 0  9993
2 37392   1.8825  82.2557 0003765  40.7743 285.9811  1.00271929 53581
INTELSAT 18 (IS-18)     
1 37834U 11056A   26198.56294788  .00000043  00000+0  00000+0 0  9998
2 37834   0.0446 250.7447 0001836 237.8986 189.3875  1.00272563 54119
INTELSAT 22 (IS-22)     
1 38098U 12011A   26198.63859700 -.00000068  00000+0  00000+0 0  9990
2 38098   0.0198  51.8095 0001840  75.5737 110.0623  1.00271947  7497
INTELSAT 19 (IS-19)     
1 38356U 12030A   26198.58590733 -.00000066  00000+0  00000+0 0  9998
2 38356   0.0190  44.2337 0002885  71.8923 196.1845  1.00271767 50755
INTELSAT 20 (IS-20)     
1 38740U 12043A   26198.63790367 -.00000034  00000+0  00000+0 0  9995
2 38740   0.0124  65.4071 0001289 115.9588  52.2353  1.00271078 51058
INTELSAT 21 (IS-21)     
1 38749U 12045A   26198.56363308 -.00000294  00000+0  00000+0 0  9997
2 38749   0.0475 245.0896 0001623 241.9620 313.2362  1.00272129 50828
